[{"OBJECT_NAME":"STARLINK-34687","OBJECT_ID":"2025-157F","EPOCH":"2025-12-28T06:09:06.504192","MEAN_MOTION":15.39618756,"ECCENTRICITY":0.0001202,"INCLINATION":53.1601,"RA_OF_ASC_NODE":319.8404,"ARG_OF_PERICENTER":88.2353,"MEAN_ANOMALY":271.8789,"EPHEMERIS_TYPE":0,"CLASSIFICATION_TYPE":"U","NORAD_CAT_ID":64909,"ELEMENT_SET_NO":999,"REV_AT_EPOCH":2510,"BSTAR":0.0013300781,"MEAN_MOTION_DOT":0.00053172,"MEAN_MOTION_DDOT":0},{"OBJECT_NAME":"STARLINK-34642","OBJECT_ID":"2025-157G","EPOCH":"2025-12-28T04:29:05.199936","MEAN_MOTION":15.39634699,"ECCENTRICITY":0.00012542,"INCLINATION":53.1605,"RA_OF_ASC_NODE":320.8335,"ARG_OF_PERICENTER":87.3531,"MEAN_ANOMALY":272.7618,"EPHEMERIS_TYPE":0,"CLASSIFICATION_TYPE":"U","NORAD_CAT_ID":64910,"ELEMENT_SET_NO":999,"REV_AT_EPOCH":2513,"BSTAR":0.001248347,"MEAN_MOTION_DOT":0.00049885,"MEAN_MOTION_DDOT":0},{"OBJECT_NAME":"STARLINK-34718","OBJECT_ID":"2025-157H","EPOCH":"2025-12-28T04:15:42.746976","MEAN_MOTION":15.39632521,"ECCENTRICITY":0.00013948,"INCLINATION":53.1597,"RA_OF_ASC_NODE":320.7751,"ARG_OF_PERICENTER":68.5163,"MEAN_ANOMALY":291.599,"EPHEMERIS_TYPE":0,"CLASSIFICATION_TYPE":"U","NORAD_CAT_ID":64911,"ELEMENT_SET_NO":999,"REV_AT_EPOCH":2513,"BSTAR":0.0020071423,"MEAN_MOTION_DOT":0.00080773,"MEAN_MOTION_DDOT":0},{"OBJECT_NAME":"STARLINK-34711","OBJECT_ID":"2025-157J","EPOCH":"2025-12-28T02:35:32.565984","MEAN_MOTION":15.3970322,"ECCENTRICITY":9.07e-5,"INCLINATION":53.1606,"RA_OF_ASC_NODE":321.0515,"ARG_OF_PERICENTER":48.9176,"MEAN_ANOMALY":311.1907,"EPHEMERIS_TYPE":0,"CLASSIFICATION_TYPE":"U","NORAD_CAT_ID":64912,"ELEMENT_SET_NO":999,"REV_AT_EPOCH":2512,"BSTAR":0.0023858902,"MEAN_MOTION_DOT":0.00096514,"MEAN_MOTION_DDOT":0},{"OBJECT_NAME":"STARLINK-34659","OBJECT_ID":"2025-157K","EPOCH":"2025-12-27T04:33:29.736864","MEAN_MOTION":15.39611873,"ECCENTRICITY":0.00011119,"INCLINATION":53.1606,"RA_OF_ASC_NODE":325.2745,"ARG_OF_PERICENTER":108.1978,"MEAN_ANOMALY":251.9148,"EPHEMERIS_TYPE":0,"CLASSIFICATION_TYPE":"U","NORAD_CAT_ID":64913,"ELEMENT_SET_NO":999,"REV_AT_EPOCH":2493,"BSTAR":0.0016276348,"MEAN_MOTION_DOT":0.00065246,"MEAN_MOTION_DDOT":0},{"OBJECT_NAME":"STARLINK-34571","OBJECT_ID":"2025-157L","EPOCH":"2025-12-28T06:49:13.777536","MEAN_MOTION":15.39629183,"ECCENTRICITY":0.00014478,"INCLINATION":53.1617,"RA_OF_ASC_NODE":320.0148,"ARG_OF_PERICENTER":85.6577,"MEAN_ANOMALY":274.4593,"EPHEMERIS_TYPE":0,"CLASSIFICATION_TYPE":"U","NORAD_CAT_ID":64914,"ELEMENT_SET_NO":999,"REV_AT_EPOCH":2510,"BSTAR":0.0017252643,"MEAN_MOTION_DOT":0.0006926,"MEAN_MOTION_DDOT":0},{"OBJECT_NAME":"STARLINK-34636","OBJECT_ID":"2025-157M","EPOCH":"2025-12-28T06:35:53.221056","MEAN_MOTION":15.39610476,"ECCENTRICITY":0.00015628,"INCLINATION":53.1597,"RA_OF_ASC_NODE":319.9564,"ARG_OF_PERICENTER":90.9573,"MEAN_ANOMALY":269.1611,"EPHEMERIS_TYPE":0,"CLASSIFICATION_TYPE":"U","NORAD_CAT_ID":64915,"ELEMENT_SET_NO":999,"REV_AT_EPOCH":2515,"BSTAR":0.0020736562,"MEAN_MOTION_DOT":0.00083432,"MEAN_MOTION_DDOT":0},{"OBJECT_NAME":"STARLINK-34695","OBJECT_ID":"2025-157N","EPOCH":"2025-12-28T08:00:01.999872","MEAN_MOTION":15.39574534,"ECCENTRICITY":0.0001235,"INCLINATION":53.1594,"RA_OF_ASC_NODE":319.6299,"ARG_OF_PERICENTER":95.084,"MEAN_ANOMALY":255.007,"EPHEMERIS_TYPE":0,"CLASSIFICATION_TYPE":"U","NORAD_CAT_ID":64916,"ELEMENT_SET_NO":999,"REV_AT_EPOCH":590,"BSTAR":0.0011733924,"MEAN_MOTION_DOT":0.00046753,"MEAN_MOTION_DDOT":0},{"OBJECT_NAME":"STARLINK-34653","OBJECT_ID":"2025-157P","EPOCH":"2025-12-27T02:13:12.577152","MEAN_MOTION":15.39633635,"ECCENTRICITY":0.0001411,"INCLINATION":53.1608,"RA_OF_ASC_NODE":325.3716,"ARG_OF_PERICENTER":117.1036,"MEAN_ANOMALY":243.0113,"EPHEMERIS_TYPE":0,"CLASSIFICATION_TYPE":"U","NORAD_CAT_ID":64917,"ELEMENT_SET_NO":999,"REV_AT_EPOCH":2492,"BSTAR":0.0012998,"MEAN_MOTION_DOT":0.00051969,"MEAN_MOTION_DDOT":0},{"OBJECT_NAME":"STARLINK-34611","OBJECT_ID":"2025-157Q","EPOCH":"2025-12-28T04:22:52.818528","MEAN_MOTION":15.39625026,"ECCENTRICITY":0.00010325,"INCLINATION":53.1583,"RA_OF_ASC_NODE":320.805,"ARG_OF_PERICENTER":83.7648,"MEAN_ANOMALY":276.3474,"EPHEMERIS_TYPE":0,"CLASSIFICATION_TYPE":"U","NORAD_CAT_ID":64918,"ELEMENT_SET_NO":999,"REV_AT_EPOCH":2513,"BSTAR":0.00211781,"MEAN_MOTION_DOT":0.00085278,"MEAN_MOTION_DDOT":0},{"OBJECT_NAME":"STARLINK-34599","OBJECT_ID":"2025-157R","EPOCH":"2025-12-28T06:22:57.981504","MEAN_MOTION":15.39626884,"ECCENTRICITY":8.914e-5,"INCLINATION":53.1599,"RA_OF_ASC_NODE":319.8996,"ARG_OF_PERICENTER":96.7378,"MEAN_ANOMALY":263.3728,"EPHEMERIS_TYPE":0,"CLASSIFICATION_TYPE":"U","NORAD_CAT_ID":64919,"ELEMENT_SET_NO":999,"REV_AT_EPOCH":2515,"BSTAR":0.0012967604,"MEAN_MOTION_DOT":0.00051835,"MEAN_MOTION_DDOT":0},{"OBJECT_NAME":"STARLINK-34069","OBJECT_ID":"2025-157S","EPOCH":"2025-12-28T04:16:11.679744","MEAN_MOTION":15.39627069,"ECCENTRICITY":0.00011502,"INCLINATION":53.1597,"RA_OF_ASC_NODE":320.7753,"ARG_OF_PERICENTER":86.6385,"MEAN_ANOMALY":273.4751,"EPHEMERIS_TYPE":0,"CLASSIFICATION_TYPE":"U","NORAD_CAT_ID":64920,"ELEMENT_SET_NO":999,"REV_AT_EPOCH":2513,"BSTAR":0.0017774389,"MEAN_MOTION_DOT":0.00071381,"MEAN_MOTION_DDOT":0},{"OBJECT_NAME":"STARLINK-34699","OBJECT_ID":"2025-157T","EPOCH":"2025-12-28T04:09:30.547872","MEAN_MOTION":15.39705895,"ECCENTRICITY":0.0001166,"INCLINATION":53.1592,"RA_OF_ASC_NODE":320.7457,"ARG_OF_PERICENTER":97.5314,"MEAN_ANOMALY":262.5824,"EPHEMERIS_TYPE":0,"CLASSIFICATION_TYPE":"U","NORAD_CAT_ID":64921,"ELEMENT_SET_NO":999,"REV_AT_EPOCH":2513,"BSTAR":0.0023528552,"MEAN_MOTION_DOT":0.00095164,"MEAN_MOTION_DDOT":0},{"OBJECT_NAME":"STARLINK-34700","OBJECT_ID":"2025-157U","EPOCH":"2025-12-28T07:02:36.081024","MEAN_MOTION":15.39626936,"ECCENTRICITY":0.00012929,"INCLINATION":53.1612,"RA_OF_ASC_NODE":320.0721,"ARG_OF_PERICENTER":74.403,"MEAN_ANOMALY":285.7118,"EPHEMERIS_TYPE":0,"CLASSIFICATION_TYPE":"U","NORAD_CAT_ID":64922,"ELEMENT_SET_NO":999,"REV_AT_EPOCH":2510,"BSTAR":0.0014575148,"MEAN_MOTION_DOT":0.00058361,"MEAN_MOTION_DDOT":0},{"OBJECT_NAME":"STARLINK-34643","OBJECT_ID":"2025-157V","EPOCH":"2025-12-28T06:49:42.780288","MEAN_MOTION":15.39626976,"ECCENTRICITY":0.00013217,"INCLINATION":53.1603,"RA_OF_ASC_NODE":320.013,"ARG_OF_PERICENTER":79.7793,"MEAN_ANOMALY":280.3361,"EPHEMERIS_TYPE":0,"CLASSIFICATION_TYPE":"U","NORAD_CAT_ID":64923,"ELEMENT_SET_NO":999,"REV_AT_EPOCH":2515,"BSTAR":0.0018984822,"MEAN_MOTION_DOT":0.00076319,"MEAN_MOTION_DDOT":0},{"OBJECT_NAME":"STARLINK-34199","OBJECT_ID":"2025-157W","EPOCH":"2025-12-28T05:22:26.496192","MEAN_MOTION":15.39619689,"ECCENTRICITY":0.00019595,"INCLINATION":53.1611,"RA_OF_ASC_NODE":320.3475,"ARG_OF_PERICENTER":41.8337,"MEAN_ANOMALY":318.2817,"EPHEMERIS_TYPE":0,"CLASSIFICATION_TYPE":"U","NORAD_CAT_ID":64924,"ELEMENT_SET_NO":999,"REV_AT_EPOCH":2509,"BSTAR":0.0013683153,"MEAN_MOTION_DOT":0.00054726,"MEAN_MOTION_DDOT":0},{"OBJECT_NAME":"STARLINK-34579","OBJECT_ID":"2025-157X","EPOCH":"2025-12-28T04:02:49.657920","MEAN_MOTION":15.39648003,"ECCENTRICITY":0.00022466,"INCLINATION":53.1608,"RA_OF_ASC_NODE":320.7153,"ARG_OF_PERICENTER":33.436,"MEAN_ANOMALY":326.6786,"EPHEMERIS_TYPE":0,"CLASSIFICATION_TYPE":"U","NORAD_CAT_ID":64925,"ELEMENT_SET_NO":999,"REV_AT_EPOCH":2513,"BSTAR":0.0013830156,"MEAN_MOTION_DOT":0.00055376,"MEAN_MOTION_DDOT":0},{"OBJECT_NAME":"STARLINK-34543","OBJECT_ID":"2025-157Y","EPOCH":"2025-12-28T03:08:54.110976","MEAN_MOTION":15.38617703,"ECCENTRICITY":0.00209065,"INCLINATION":53.1604,"RA_OF_ASC_NODE":320.4803,"ARG_OF_PERICENTER":14.462,"MEAN_ANOMALY":345.6978,"EPHEMERIS_TYPE":0,"CLASSIFICATION_TYPE":"U","NORAD_CAT_ID":64926,"ELEMENT_SET_NO":999,"REV_AT_EPOCH":2508,"BSTAR":0.0025425021,"MEAN_MOTION_DOT":0.00100016,"MEAN_MOTION_DDOT":0},{"OBJECT_NAME":"STARLINK-34661","OBJECT_ID":"2025-157Z","EPOCH":"2025-12-28T06:09:35.457696","MEAN_MOTION":15.39620194,"ECCENTRICITY":0.00013749,"INCLINATION":53.1588,"RA_OF_ASC_NODE":319.833,"ARG_OF_PERICENTER":106.4593,"MEAN_ANOMALY":253.6563,"EPHEMERIS_TYPE":0,"CLASSIFICATION_TYPE":"U","NORAD_CAT_ID":64927,"ELEMENT_SET_NO":999,"REV_AT_EPOCH":2487,"BSTAR":0.0020875722,"MEAN_MOTION_DOT":0.00084027,"MEAN_MOTION_DDOT":0},{"OBJECT_NAME":"STARLINK-34248","OBJECT_ID":"2025-157AA","EPOCH":"2025-12-28T06:43:01.382304","MEAN_MOTION":15.39621667,"ECCENTRICITY":9.203e-5,"INCLINATION":53.1601,"RA_OF_ASC_NODE":319.9838,"ARG_OF_PERICENTER":96.5802,"MEAN_ANOMALY":263.5308,"EPHEMERIS_TYPE":0,"CLASSIFICATION_TYPE":"U","NORAD_CAT_ID":64928,"ELEMENT_SET_NO":999,"REV_AT_EPOCH":2515,"BSTAR":0.00076779093,"MEAN_MOTION_DOT":0.00030436,"MEAN_MOTION_DDOT":0},{"OBJECT_NAME":"STARLINK-34290","OBJECT_ID":"2025-157AB","EPOCH":"2025-12-28T06:36:20.387808","MEAN_MOTION":15.39622342,"ECCENTRICITY":0.00012987,"INCLINATION":53.161,"RA_OF_ASC_NODE":319.9539,"ARG_OF_PERICENTER":96.5032,"MEAN_ANOMALY":263.6121,"EPHEMERIS_TYPE":0,"CLASSIFICATION_TYPE":"U","NORAD_CAT_ID":64929,"ELEMENT_SET_NO":999,"REV_AT_EPOCH":2515,"BSTAR":0.00077497688,"MEAN_MOTION_DOT":0.00030726,"MEAN_MOTION_DDOT":0},{"OBJECT_NAME":"STARLINK-34220","OBJECT_ID":"2025-157AC","EPOCH":"2025-12-28T04:29:25.687968","MEAN_MOTION":15.39619559,"ECCENTRICITY":0.00011544,"INCLINATION":53.1589,"RA_OF_ASC_NODE":320.1092,"ARG_OF_PERICENTER":101.5064,"MEAN_ANOMALY":258.6071,"EPHEMERIS_TYPE":0,"CLASSIFICATION_TYPE":"U","NORAD_CAT_ID":64930,"ELEMENT_SET_NO":999,"REV_AT_EPOCH":2503,"BSTAR":0.0017979917,"MEAN_MOTION_DOT":0.00072201,"MEAN_MOTION_DDOT":0},{"OBJECT_NAME":"STARLINK-34715","OBJECT_ID":"2025-157AD","EPOCH":"2025-12-28T06:29:39.407136","MEAN_MOTION":15.39622462,"ECCENTRICITY":0.00013603,"INCLINATION":53.1605,"RA_OF_ASC_NODE":319.9259,"ARG_OF_PERICENTER":98.9393,"MEAN_ANOMALY":261.1765,"EPHEMERIS_TYPE":0,"CLASSIFICATION_TYPE":"U","NORAD_CAT_ID":64931,"ELEMENT_SET_NO":999,"REV_AT_EPOCH":2515,"BSTAR":0.0017667854,"MEAN_MOTION_DOT":0.00070936,"MEAN_MOTION_DDOT":0}]
